<?xml version="1.0" encoding="UTF-8"?>
<ndm xmlns:xsi="http://www.w3.org/2001/XMLSchema-instance" xsi:noNamespaceSchemaLocation="https://sanaregistry.org/r/ndmxml_unqualified/ndmxml-2.0.0-master-2.0.xsd">
<omm id="CCSDS_OMM_VERS" version="2.0">
<header><CREATION_DATE/><ORIGINATOR/></header><body><segment><metadata><OBJECT_NAME>ONEWEB-0620</OBJECT_NAME><OBJECT_ID>2023-004X</OBJECT_ID><CENTER_NAME>EARTH</CENTER_NAME><REF_FRAME>TEME</REF_FRAME><TIME_SYSTEM>UTC</TIME_SYSTEM><MEAN_ELEMENT_THEORY>SGP4</MEAN_ELEMENT_THEORY></metadata><data><meanElements><EPOCH>2025-06-07T12:30:21.495168</EPOCH><MEAN_MOTION>13.11416710</MEAN_MOTION><ECCENTRICITY>.0002461</ECCENTRICITY><INCLINATION>87.8837</INCLINATION><RA_OF_ASC_NODE>95.7747</RA_OF_ASC_NODE><ARG_OF_PERICENTER>77.1351</ARG_OF_PERICENTER><MEAN_ANOMALY>283.0052</MEAN_ANOMALY></meanElements><tleParameters><EPHEMERIS_TYPE>0</EPHEMERIS_TYPE><CLASSIFICATION_TYPE>U</CLASSIFICATION_TYPE><NORAD_CAT_ID>55161</NORAD_CAT_ID><ELEMENT_SET_NO>999</ELEMENT_SET_NO><REV_AT_EPOCH>11672</REV_AT_EPOCH><BSTAR>.56191E-3</BSTAR><MEAN_MOTION_DOT>.212E-5</MEAN_MOTION_DOT><MEAN_MOTION_DDOT>0</MEAN_MOTION_DDOT></tleParameters></data></segment></body></omm>
<omm id="CCSDS_OMM_VERS" version="2.0">
<header><CREATION_DATE/><ORIGINATOR/></header><body><segment><metadata><OBJECT_NAME>ONEWEB-0621</OBJECT_NAME><OBJECT_ID>2023-004Y</OBJECT_ID><CENTER_NAME>EARTH</CENTER_NAME><REF_FRAME>TEME</REF_FRAME><TIME_SYSTEM>UTC</TIME_SYSTEM><MEAN_ELEMENT_THEORY>SGP4</MEAN_ELEMENT_THEORY></metadata><data><meanElements><EPOCH>2025-06-07T13:09:24.641568</EPOCH><MEAN_MOTION>13.11418546</MEAN_MOTION><ECCENTRICITY>.0001891</ECCENTRICITY><INCLINATION>87.8836</INCLINATION><RA_OF_ASC_NODE>95.7267</RA_OF_ASC_NODE><ARG_OF_PERICENTER>73.3363</ARG_OF_PERICENTER><MEAN_ANOMALY>286.7973</MEAN_ANOMALY></meanElements><tleParameters><EPHEMERIS_TYPE>0</EPHEMERIS_TYPE><CLASSIFICATION_TYPE>U</CLASSIFICATION_TYPE><NORAD_CAT_ID>55162</NORAD_CAT_ID><ELEMENT_SET_NO>999</ELEMENT_SET_NO><REV_AT_EPOCH>11670</REV_AT_EPOCH><BSTAR>-.16136E-2</BSTAR><MEAN_MOTION_DOT>-.559E-5</MEAN_MOTION_DOT><MEAN_MOTION_DDOT>0</MEAN_MOTION_DDOT></tleParameters></data></segment></body></omm>
<omm id="CCSDS_OMM_VERS" version="2.0">
<header><CREATION_DATE/><ORIGINATOR/></header><body><segment><metadata><OBJECT_NAME>ONEWEB-0622</OBJECT_NAME><OBJECT_ID>2023-004Z</OBJECT_ID><CENTER_NAME>EARTH</CENTER_NAME><REF_FRAME>TEME</REF_FRAME><TIME_SYSTEM>UTC</TIME_SYSTEM><MEAN_ELEMENT_THEORY>SGP4</MEAN_ELEMENT_THEORY></metadata><data><meanElements><EPOCH>2025-06-07T13:16:42.927168</EPOCH><MEAN_MOTION>13.11417780</MEAN_MOTION><ECCENTRICITY>.000255</ECCENTRICITY><INCLINATION>87.8836</INCLINATION><RA_OF_ASC_NODE>95.7485</RA_OF_ASC_NODE><ARG_OF_PERICENTER>64.3757</ARG_OF_PERICENTER><MEAN_ANOMALY>295.7634</MEAN_ANOMALY></meanElements><tleParameters><EPHEMERIS_TYPE>0</EPHEMERIS_TYPE><CLASSIFICATION_TYPE>U</CLASSIFICATION_TYPE><NORAD_CAT_ID>55163</NORAD_CAT_ID><ELEMENT_SET_NO>999</ELEMENT_SET_NO><REV_AT_EPOCH>11669</REV_AT_EPOCH><BSTAR>-.1819E-2</BSTAR><MEAN_MOTION_DOT>-.632E-5</MEAN_MOTION_DOT><MEAN_MOTION_DDOT>0</MEAN_MOTION_DDOT></tleParameters></data></segment></body></omm>
<omm id="CCSDS_OMM_VERS" version="2.0">
<header><CREATION_DATE/><ORIGINATOR/></header><body><segment><metadata><OBJECT_NAME>ONEWEB-0623</OBJECT_NAME><OBJECT_ID>2023-004AA</OBJECT_ID><CENTER_NAME>EARTH</CENTER_NAME><REF_FRAME>TEME</REF_FRAME><TIME_SYSTEM>UTC</TIME_SYSTEM><MEAN_ELEMENT_THEORY>SGP4</MEAN_ELEMENT_THEORY></metadata><data><meanElements><EPOCH>2025-06-06T19:37:15.852576</EPOCH><MEAN_MOTION>13.17649482</MEAN_MOTION><ECCENTRICITY>.0002201</ECCENTRICITY><INCLINATION>87.9070</INCLINATION><RA_OF_ASC_NODE>80.6303</RA_OF_ASC_NODE><ARG_OF_PERICENTER>58.1717</ARG_OF_PERICENTER><MEAN_ANOMALY>301.9629</MEAN_ANOMALY></meanElements><tleParameters><EPHEMERIS_TYPE>0</EPHEMERIS_TYPE><CLASSIFICATION_TYPE>U</CLASSIFICATION_TYPE><NORAD_CAT_ID>55164</NORAD_CAT_ID><ELEMENT_SET_NO>999</ELEMENT_SET_NO><REV_AT_EPOCH>11815</REV_AT_EPOCH><BSTAR>-.40244E-5</BSTAR><MEAN_MOTION_DOT>.11E-6</MEAN_MOTION_DOT><MEAN_MOTION_DDOT>0</MEAN_MOTION_DDOT></tleParameters></data></segment></body></omm>
<omm id="CCSDS_OMM_VERS" version="2.0">
<header><CREATION_DATE/><ORIGINATOR/></header><body><segment><metadata><OBJECT_NAME>ONEWEB-0624</OBJECT_NAME><OBJECT_ID>2023-004AB</OBJECT_ID><CENTER_NAME>EARTH</CENTER_NAME><REF_FRAME>TEME</REF_FRAME><TIME_SYSTEM>UTC</TIME_SYSTEM><MEAN_ELEMENT_THEORY>SGP4</MEAN_ELEMENT_THEORY></metadata><data><meanElements><EPOCH>2025-06-07T11:23:47.704416</EPOCH><MEAN_MOTION>13.12940604</MEAN_MOTION><ECCENTRICITY>.0001896</ECCENTRICITY><INCLINATION>87.8895</INCLINATION><RA_OF_ASC_NODE>65.1923</RA_OF_ASC_NODE><ARG_OF_PERICENTER>76.1239</ARG_OF_PERICENTER><MEAN_ANOMALY>284.0100</MEAN_ANOMALY></meanElements><tleParameters><EPHEMERIS_TYPE>0</EPHEMERIS_TYPE><CLASSIFICATION_TYPE>U</CLASSIFICATION_TYPE><NORAD_CAT_ID>55165</NORAD_CAT_ID><ELEMENT_SET_NO>999</ELEMENT_SET_NO><REV_AT_EPOCH>11890</REV_AT_EPOCH><BSTAR>-.24667E-3</BSTAR><MEAN_MOTION_DOT>-.77E-6</MEAN_MOTION_DOT><MEAN_MOTION_DDOT>0</MEAN_MOTION_DDOT></tleParameters></data></segment></body></omm>
<omm id="CCSDS_OMM_VERS" version="2.0">
<header><CREATION_DATE/><ORIGINATOR/></header><body><segment><metadata><OBJECT_NAME>ONEWEB-0625</OBJECT_NAME><OBJECT_ID>2023-004AC</OBJECT_ID><CENTER_NAME>EARTH</CENTER_NAME><REF_FRAME>TEME</REF_FRAME><TIME_SYSTEM>UTC</TIME_SYSTEM><MEAN_ELEMENT_THEORY>SGP4</MEAN_ELEMENT_THEORY></metadata><data><meanElements><EPOCH>2025-06-07T11:46:48.950976</EPOCH><MEAN_MOTION>13.17651066</MEAN_MOTION><ECCENTRICITY>.0001841</ECCENTRICITY><INCLINATION>87.9074</INCLINATION><RA_OF_ASC_NODE>80.4941</RA_OF_ASC_NODE><ARG_OF_PERICENTER>82.4533</ARG_OF_PERICENTER><MEAN_ANOMALY>277.6807</MEAN_ANOMALY></meanElements><tleParameters><EPHEMERIS_TYPE>0</EPHEMERIS_TYPE><CLASSIFICATION_TYPE>U</CLASSIFICATION_TYPE><NORAD_CAT_ID>55166</NORAD_CAT_ID><ELEMENT_SET_NO>999</ELEMENT_SET_NO><REV_AT_EPOCH>11823</REV_AT_EPOCH><BSTAR>.68113E-5</BSTAR><MEAN_MOTION_DOT>.16E-6</MEAN_MOTION_DOT><MEAN_MOTION_DDOT>0</MEAN_MOTION_DDOT></tleParameters></data></segment></body></omm>
<omm id="CCSDS_OMM_VERS" version="2.0">
<header><CREATION_DATE/><ORIGINATOR/></header><body><segment><metadata><OBJECT_NAME>ONEWEB-0626</OBJECT_NAME><OBJECT_ID>2023-004AD</OBJECT_ID><CENTER_NAME>EARTH</CENTER_NAME><REF_FRAME>TEME</REF_FRAME><TIME_SYSTEM>UTC</TIME_SYSTEM><MEAN_ELEMENT_THEORY>SGP4</MEAN_ELEMENT_THEORY></metadata><data><meanElements><EPOCH>2025-06-07T11:32:14.280576</EPOCH><MEAN_MOTION>13.17650044</MEAN_MOTION><ECCENTRICITY>.0002457</ECCENTRICITY><INCLINATION>87.9072</INCLINATION><RA_OF_ASC_NODE>80.4939</RA_OF_ASC_NODE><ARG_OF_PERICENTER>88.0620</ARG_OF_PERICENTER><MEAN_ANOMALY>272.0793</MEAN_ANOMALY></meanElements><tleParameters><EPHEMERIS_TYPE>0</EPHEMERIS_TYPE><CLASSIFICATION_TYPE>U</CLASSIFICATION_TYPE><NORAD_CAT_ID>55167</NORAD_CAT_ID><ELEMENT_SET_NO>999</ELEMENT_SET_NO><REV_AT_EPOCH>11823</REV_AT_EPOCH><BSTAR>.75346E-4</BSTAR><MEAN_MOTION_DOT>.42E-6</MEAN_MOTION_DOT><MEAN_MOTION_DDOT>0</MEAN_MOTION_DDOT></tleParameters></data></segment></body></omm>
<omm id="CCSDS_OMM_VERS" version="2.0">
<header><CREATION_DATE/><ORIGINATOR/></header><body><segment><metadata><OBJECT_NAME>ONEWEB-0627</OBJECT_NAME><OBJECT_ID>2023-004AE</OBJECT_ID><CENTER_NAME>EARTH</CENTER_NAME><REF_FRAME>TEME</REF_FRAME><TIME_SYSTEM>UTC</TIME_SYSTEM><MEAN_ELEMENT_THEORY>SGP4</MEAN_ELEMENT_THEORY></metadata><data><meanElements><EPOCH>2025-06-07T13:04:34.227840</EPOCH><MEAN_MOTION>13.17651079</MEAN_MOTION><ECCENTRICITY>.0002239</ECCENTRICITY><INCLINATION>87.9074</INCLINATION><RA_OF_ASC_NODE>80.4842</RA_OF_ASC_NODE><ARG_OF_PERICENTER>64.3789</ARG_OF_PERICENTER><MEAN_ANOMALY>295.7574</MEAN_ANOMALY></meanElements><tleParameters><EPHEMERIS_TYPE>0</EPHEMERIS_TYPE><CLASSIFICATION_TYPE>U</CLASSIFICATION_TYPE><NORAD_CAT_ID>55168</NORAD_CAT_ID><ELEMENT_SET_NO>999</ELEMENT_SET_NO><REV_AT_EPOCH>11824</REV_AT_EPOCH><BSTAR>.12684E-3</BSTAR><MEAN_MOTION_DOT>.62E-6</MEAN_MOTION_DOT><MEAN_MOTION_DDOT>0</MEAN_MOTION_DDOT></tleParameters></data></segment></body></omm>

</ndm>
