ONEWEB-0620             
1 55161U 23004X   25158.52108212  .00000212  00000+0  56191-3 0  9998
2 55161  87.8837  95.7747 0002461  77.1351 283.0052 13.11416710116729
ONEWEB-0621             
1 55162U 23004Y   25158.54820187 -.00000559  00000+0 -16136-2 0  9993
2 55162  87.8836  95.7267 0001891  73.3363 286.7973 13.11418546116702
ONEWEB-0622             
1 55163U 23004Z   25158.55327462 -.00000632  00000+0 -18190-2 0  9997
2 55163  87.8836  95.7485 0002550  64.3757 295.7634 13.11417780116696
ONEWEB-0623             
1 55164U 23004AA  25157.81754459  .00000011  00000+0 -40244-5 0  9994
2 55164  87.9070  80.6303 0002201  58.1717 301.9629 13.17649482118159
ONEWEB-0624             
1 55165U 23004AB  25158.47485769 -.00000077  00000+0 -24667-3 0  9995
2 55165  87.8895  65.1923 0001896  76.1239 284.0100 13.12940604118901
ONEWEB-0625             
1 55166U 23004AC  25158.49084434  .00000016  00000+0  68113-5 0  9999
2 55166  87.9074  80.4941 0001841  82.4533 277.6807 13.17651066118233
ONEWEB-0626             
1 55167U 23004AD  25158.48072084  .00000042  00000+0  75346-4 0  9991
2 55167  87.9072  80.4939 0002457  88.0620 272.0793 13.17650044118230
ONEWEB-0627             
1 55168U 23004AE  25158.54484060  .00000062  00000+0  12684-3 0  9997
2 55168  87.9074  80.4842 0002239  64.3789 295.7574 13.17651079118246
